SOYUZ-MS 28             
1 66664U 25275A   26002.82312794  .00015413  00000+0  28669-3 0  9992
2 66664  51.6329  38.0777 0007544 333.0714  26.9882 15.49046836546128
1998-067XS              
1 66906U 98067XS  26003.11837651  .00036912  00000+0  60984-3 0  9990
2 66906  51.6320  36.2998 0002439 315.9884  44.0911 15.51871685  4931
1998-067XT              
1 66907U 98067XT  26003.09257360  .00104996  00000+0  15465-2 0  9992
2 66907  51.6313  36.1286 0003948 358.1996   1.8980 15.54579387  4936
1998-067XU              
1 66908U 98067XU  26003.09149751  .00107048  00000+0  15779-2 0  9996
2 66908  51.6299  36.1201 0003988 353.4766   6.6172 15.54548665  4935
SILVERSAT               
1 66909U 98067XV  26003.08758906  .00115783  00000+0  16724-2 0  9990
2 66909  51.6306  36.0947 0004069   1.8466 358.2539 15.55063554  4936
1998-067XW              
1 66910U 98067XW  26003.08681138  .00107444  00000+0  15671-2 0  9999
2 66910  51.6307  36.0888 0003287 334.5712  25.5117 15.54837072  4933
1998-067XX              
1 66911U 98067XX  26003.07908809  .00124603  00000+0  17574-2 0  9996
2 66911  51.6316  36.0377 0003139 348.4820  11.6099 15.55675577  4922
1998-067XY              
1 66912U 98067XY  26003.10196895  .00081296  00000+0  12471-2 0  9996
2 66912  51.6314  36.1916 0003768 345.4214  14.6667 15.53580160  4928
