CCSDS_OMM_VERS = 2.0
CREATION_DATE  = 
ORIGINATOR     = 

OBJECT_NAME    = SOYUZ-MS 28
OBJECT_ID      = 2025-275A
CENTER_NAME    = EARTH
REF_FRAME      = TEME
TIME_SYSTEM    = UTC
MEAN_ELEMENT_THEORY = SGP/SGP4

EPOCH          = 2026-01-02T19:45:18.254016
MEAN_MOTION    = 15.49046836
ECCENTRICITY   = .0007544
INCLINATION    = 51.6329
RA_OF_ASC_NODE = 38.0777
ARG_OF_PERICENTER = 333.0714
MEAN_ANOMALY   = 26.9882

EPHEMERIS_TYPE = 0
CLASSIFICATION_TYPE = U
NORAD_CAT_ID   = 66664
ELEMENT_SET_NO = 999
REV_AT_EPOCH   = 54612
BSTAR          = .28669E-3
MEAN_MOTION_DOT = .15413E-3
MEAN_MOTION_DDOT = 0

CCSDS_OMM_VERS = 2.0
CREATION_DATE  = 
ORIGINATOR     = 

OBJECT_NAME    = 1998-067XS
OBJECT_ID      = 1998-067XS
CENTER_NAME    = EARTH
REF_FRAME      = TEME
TIME_SYSTEM    = UTC
MEAN_ELEMENT_THEORY = SGP/SGP4

EPOCH          = 2026-01-03T02:50:27.730464
MEAN_MOTION    = 15.51871685
ECCENTRICITY   = .0002439
INCLINATION    = 51.6320
RA_OF_ASC_NODE = 36.2998
ARG_OF_PERICENTER = 315.9884
MEAN_ANOMALY   = 44.0911

EPHEMERIS_TYPE = 0
CLASSIFICATION_TYPE = U
NORAD_CAT_ID   = 66906
ELEMENT_SET_NO = 999
REV_AT_EPOCH   = 493
BSTAR          = .60984E-3
MEAN_MOTION_DOT = .36912E-3
MEAN_MOTION_DDOT = 0

CCSDS_OMM_VERS = 2.0
CREATION_DATE  = 
ORIGINATOR     = 

OBJECT_NAME    = 1998-067XT
OBJECT_ID      = 1998-067XT
CENTER_NAME    = EARTH
REF_FRAME      = TEME
TIME_SYSTEM    = UTC
MEAN_ELEMENT_THEORY = SGP/SGP4

EPOCH          = 2026-01-03T02:13:18.359040
MEAN_MOTION    = 15.54579387
ECCENTRICITY   = .0003948
INCLINATION    = 51.6313
RA_OF_ASC_NODE = 36.1286
ARG_OF_PERICENTER = 358.1996
MEAN_ANOMALY   = 1.8980

EPHEMERIS_TYPE = 0
CLASSIFICATION_TYPE = U
NORAD_CAT_ID   = 66907
ELEMENT_SET_NO = 999
REV_AT_EPOCH   = 493
BSTAR          = .15465E-2
MEAN_MOTION_DOT = .104996E-2
MEAN_MOTION_DDOT = 0

CCSDS_OMM_VERS = 2.0
CREATION_DATE  = 
ORIGINATOR     = 

OBJECT_NAME    = 1998-067XU
OBJECT_ID      = 1998-067XU
CENTER_NAME    = EARTH
REF_FRAME      = TEME
TIME_SYSTEM    = UTC
MEAN_ELEMENT_THEORY = SGP/SGP4

EPOCH          = 2026-01-03T02:11:45.384864
MEAN_MOTION    = 15.54548665
ECCENTRICITY   = .0003988
INCLINATION    = 51.6299
RA_OF_ASC_NODE = 36.1201
ARG_OF_PERICENTER = 353.4766
MEAN_ANOMALY   = 6.6172

EPHEMERIS_TYPE = 0
CLASSIFICATION_TYPE = U
NORAD_CAT_ID   = 66908
ELEMENT_SET_NO = 999
REV_AT_EPOCH   = 493
BSTAR          = .15779E-2
MEAN_MOTION_DOT = .107048E-2
MEAN_MOTION_DDOT = 0

CCSDS_OMM_VERS = 2.0
CREATION_DATE  = 
ORIGINATOR     = 

OBJECT_NAME    = SILVERSAT
OBJECT_ID      = 1998-067XV
CENTER_NAME    = EARTH
REF_FRAME      = TEME
TIME_SYSTEM    = UTC
MEAN_ELEMENT_THEORY = SGP/SGP4

EPOCH          = 2026-01-03T02:06:07.694784
MEAN_MOTION    = 15.55063554
ECCENTRICITY   = .0004069
INCLINATION    = 51.6306
RA_OF_ASC_NODE = 36.0947
ARG_OF_PERICENTER = 1.8466
MEAN_ANOMALY   = 358.2539

EPHEMERIS_TYPE = 0
CLASSIFICATION_TYPE = U
NORAD_CAT_ID   = 66909
ELEMENT_SET_NO = 999
REV_AT_EPOCH   = 493
BSTAR          = .16724E-2
MEAN_MOTION_DOT = .115783E-2
MEAN_MOTION_DDOT = 0

CCSDS_OMM_VERS = 2.0
CREATION_DATE  = 
ORIGINATOR     = 

OBJECT_NAME    = 1998-067XW
OBJECT_ID      = 1998-067XW
CENTER_NAME    = EARTH
REF_FRAME      = TEME
TIME_SYSTEM    = UTC
MEAN_ELEMENT_THEORY = SGP/SGP4

EPOCH          = 2026-01-03T02:05:00.503232
MEAN_MOTION    = 15.54837072
ECCENTRICITY   = .0003287
INCLINATION    = 51.6307
RA_OF_ASC_NODE = 36.0888
ARG_OF_PERICENTER = 334.5712
MEAN_ANOMALY   = 25.5117

EPHEMERIS_TYPE = 0
CLASSIFICATION_TYPE = U
NORAD_CAT_ID   = 66910
ELEMENT_SET_NO = 999
REV_AT_EPOCH   = 493
BSTAR          = .15671E-2
MEAN_MOTION_DOT = .107444E-2
MEAN_MOTION_DDOT = 0

CCSDS_OMM_VERS = 2.0
CREATION_DATE  = 
ORIGINATOR     = 

OBJECT_NAME    = 1998-067XX
OBJECT_ID      = 1998-067XX
CENTER_NAME    = EARTH
REF_FRAME      = TEME
TIME_SYSTEM    = UTC
MEAN_ELEMENT_THEORY = SGP/SGP4

EPOCH          = 2026-01-03T01:53:53.210976
MEAN_MOTION    = 15.55675577
ECCENTRICITY   = .0003139
INCLINATION    = 51.6316
RA_OF_ASC_NODE = 36.0377
ARG_OF_PERICENTER = 348.4820
MEAN_ANOMALY   = 11.6099

EPHEMERIS_TYPE = 0
CLASSIFICATION_TYPE = U
NORAD_CAT_ID   = 66911
ELEMENT_SET_NO = 999
REV_AT_EPOCH   = 492
BSTAR          = .17574E-2
MEAN_MOTION_DOT = .124603E-2
MEAN_MOTION_DDOT = 0

CCSDS_OMM_VERS = 2.0
CREATION_DATE  = 
ORIGINATOR     = 

OBJECT_NAME    = 1998-067XY
OBJECT_ID      = 1998-067XY
CENTER_NAME    = EARTH
REF_FRAME      = TEME
TIME_SYSTEM    = UTC
MEAN_ELEMENT_THEORY = SGP/SGP4

EPOCH          = 2026-01-03T02:26:50.117280
MEAN_MOTION    = 15.53580160
ECCENTRICITY   = .0003768
INCLINATION    = 51.6314
RA_OF_ASC_NODE = 36.1916
ARG_OF_PERICENTER = 345.4214
MEAN_ANOMALY   = 14.6667

EPHEMERIS_TYPE = 0
CLASSIFICATION_TYPE = U
NORAD_CAT_ID   = 66912
ELEMENT_SET_NO = 999
REV_AT_EPOCH   = 492
BSTAR          = .12471E-2
MEAN_MOTION_DOT = .81296E-3
MEAN_MOTION_DDOT = 0

